ONEWEB-0369             
1 49295U 21090S   26169.62249141  .00000071  00000+0  14557-3 0  9996
2 49295  87.9170 304.6879 0001789  98.7363 261.3973 13.19725297226604
ONEWEB-0370             
1 49296U 21090T   26169.53604170  .00000089  00000+0  18762-3 0  9995
2 49296  87.9195 274.1713 0002232 104.9259 255.2121 13.20771031230047
ONEWEB-0371             
1 49297U 21090U   26169.63038382  .00000037  00000+0  61030-4 0  9993
2 49297  87.9175 304.6788 0001890 102.5348 257.5996 13.19724854226644
ONEWEB-0372             
1 49298U 21090V   26169.67740639 -.00009709  00000+0 -23964-1 0  9991
2 49298  87.9197 274.1449 0001864 102.4395 257.6947 13.20692323230038
ONEWEB-0373             
1 49299U 21090W   26169.55119750  .00000083  00000+0  17199-3 0  9992
2 49299  87.9194 274.1701 0002082  99.8087 260.3281 13.20771427231202
ONEWEB-0374             
1 49300U 21090X   26169.56497051  .00000227  00000+0  57659-3 0  9994
2 49300  87.8971 289.4226 0002122  84.3634 275.7737 13.14503495227741
ONEWEB-0375             
1 49301U 21090Y   26169.53941713  .00000095  00000+0  20243-3 0  9993
2 49301  87.9195 274.1638 0002259  87.3495 272.7897 13.20771879230702
ONEWEB-0376             
1 49302U 21090Z   26169.32553632  .00000097  00000+0  21032-3 0  9999
2 49302  87.9178 304.7395 0001703 102.4740 257.6583 13.19724709226605
ONEWEB-0377             
1 49303U 21090AA  26169.67758890  .00001803  00000+0  44011-2 0  9998
2 49303  87.9201 274.1399 0002133  96.0168 264.1208 13.20795299230715
ONEWEB-0378             
1 49304U 21090AB  26169.54628204  .00000112  00000+0  24239-3 0  9993
2 49304  87.9193 274.1697 0001980  96.0763 264.0596 13.20770719229961
ONEWEB-0379             
1 49305U 21090AC  26169.56021022  .00000308  00000+0  79575-3 0  9991
2 49305  87.8969 289.4343 0001896  96.7325 263.4021 13.14503062227744
ONEWEB-0380             
1 49306U 21090AD  26169.62565336  .00000099  00000+0  21374-3 0  9991
2 49306  87.9173 304.6847 0002077  96.9803 263.1566 13.19725574226612
ONEWEB-0381             
1 49307U 21090AE  26169.67409272 -.00000037  00000+0 -12296-3 0  9990
2 49307  87.9197 274.1441 0002039  92.7023 267.4343 13.20772036230023
ONEWEB-0382             
1 49308U 21090AF  26169.58485895  .00000040  00000+0  66607-4 0  9994
2 49308  87.9194 274.1559 0001984  91.6745 268.4615 13.20770416230009
ONEWEB-0383             
1 49309U 21090AG  26169.62997689  .00000264  00000+0  67653-3 0  9998
2 49309  87.8972 289.4117 0001829  96.1094 264.0244 13.14501703227782
ONEWEB-0384             
1 49310U 21090AH  26169.57345947  .00000069  00000+0  13824-3 0  9992
2 49310  87.9200 274.2019 0001919  87.0994 273.0359 13.20812518230013
ONEWEB-0385             
1 49311U 21090AJ  26169.57813110  .00000104  00000+0  22351-3 0  9990
2 49311  87.9195 274.1626 0002013  94.6663 265.4701 13.20772835229980
ONEWEB-0386             
1 49312U 21090AK  26169.67072591  .00000133  00000+0  29492-3 0  9997
2 49312  87.9199 274.1351 0001918  92.8446 267.2906 13.20772688230011
ONEWEB-0387             
1 49313U 21090AL  26169.57981579  .00000068  00000+0  13549-3 0  9995
2 49313  87.9186 274.1752 0002306  95.1093 265.0303 13.20772677230003
ONEWEB-0388             
1 49314U 21090AM  26169.62091419  .00000095  00000+0  20585-3 0  9995
2 49314  87.9171 304.6837 0001881  94.6422 265.4926 13.19725650226601
ONEWEB-0389             
1 50469U 21132A   26169.48963292  .00000007  00000+0 -15113-4 0  9992
2 50469  87.9131   5.6089 0002147  81.7081 278.4294 13.17648914218250
ONEWEB-0390             
1 50470U 21132B   26169.49132024  .00000018  00000+0  12551-4 0  9990
2 50470  87.9132   5.6094 0002022  94.0755 266.0608 13.17649132218251
ONEWEB-0391             
1 50471U 21132C   26169.49300874  .00000015  00000+0  53435-5 0  9995
2 50471  87.9132   5.6190 0002689  83.8757 276.2681 13.17648867218254
ONEWEB-0392             
1 50472U 21132D   26169.59932580  .00000060  00000+0  12093-3 0  9995
2 50472  87.9141   5.5661 0002209  82.7214 277.4169 13.17649195218306
ONEWEB-0393             
1 50473U 21132E   26169.04329501  .00000018  00000+0  12816-4 0  9996
2 50473  87.9132   5.6939 0002017  84.9097 275.2265 13.17649679218227
ONEWEB-0394             
1 50474U 21132F   26169.69152559  .00000113  00000+0  25443-3 0  9990
2 50474  87.9172 335.1424 0001825  88.2489 271.8852 13.18688685221791
ONEWEB-0395             
1 50475U 21132G   26169.61667094 -.00000619  00000+0 -17838-2 0  9999
2 50475  87.8882  20.7829 0002038  89.0162 271.1199 13.11417884215906
ONEWEB-0396             
1 50476U 21132H   26169.68476963  .00000051  00000+0  97453-4 0  9991
2 50476  87.9173 335.1565 0001914  87.8112 272.3239 13.18685451221835
ONEWEB-0397             
1 50477U 21132J   26169.69994706  .00000065  00000+0  13299-3 0  9993
2 50477  87.9172 335.1536 0001826  85.1178 275.0163 13.18686097221819
ONEWEB-0398             
1 50478U 21132K   26169.50817361  .00000382  00000+0  10432-2 0  9992
2 50478  87.8891  20.7949 0001979  94.0227 266.1127 13.11414637215787
ONEWEB-0399             
1 50479U 21132L   26169.34202355  .00000474  00000+0  13021-2 0  9995
2 50479  87.8893  20.8389 0002127  74.2663 285.8700 13.11416688215759
